SatCatId,ObjectName,LaunchYear,OrbitalPeriod,LaunchMass,StatusCode,Inclination,Status,UcsData,OrbitClassEstimated,LaunchSiteCountry,Owner,UseType,Purpose,LaunchVehicleClass,TLE1,TLE2,MeanMotion,Eccentricity,OrbitClass
48650,STARLINK-2672,2021,95.59,260.0,+,53.05,Active,1,LEO,USA,USA,Commercial,Communications,Falcon,1 48650U 21044N   23218.78282821 -.00006041  00000+0 -38737-3 0  9991,2 48650  53.0539  47.9610 0001332  74.0494 286.0642 15.06365036121977,15.06365036,0.0001332,LEO
48651,STARLINK-2731,2021,95.59,260.0,+,53.05,Active,1,LEO,USA,USA,Commercial,Communications,Falcon,1 48651U 21044P   23218.77914768  .00012495  00000+0  85737-3 0  9993,2 48651  53.0539  47.9737 0001061 109.3601 250.7502 15.06350338121971,15.06350338,0.0001061,LEO
48652,STARLINK-2727,2021,95.59,260.0,+,53.05,Active,1,LEO,USA,USA,Commercial,Communications,Falcon,1 48652U 21044Q   23218.90814611  .00017719  00000+0  12063-2 0  9990,2 48652  53.0544  47.3982 0000946 103.6717 256.4377 15.06373647121993,15.06373647,9.46e-05,LEO
48653,STARLINK-2720,2021,95.59,260.0,+,53.05,Active,1,LEO,USA,USA,Commercial,Communications,Falcon,1 48653U 21044R   23219.23620891  .00024638  00000+0  16681-2 0  9991,2 48653  53.0545  45.9231 0000809 119.9368 240.1701 15.06379384122048,15.06379384,8.09e-05,LEO
48654,STARLINK-2651,2021,95.59,260.0,+,53.05,Active,1,LEO,USA,USA,Commercial,Communications,Falcon,1 48654U 21044S   23218.70173911 -.00009830  00000+0 -64257-3 0  9991,2 48654  53.0555  48.3230 0001515 109.5207 250.5946 15.06362911122020,15.06362911,0.0001515,LEO
48655,STARLINK-2657,2021,95.59,260.0,+,53.06,Active,1,LEO,USA,USA,Commercial,Communications,Falcon,1 48655U 21044T   23219.22883208  .00027932  00000+0  18874-2 0  9991,2 48655  53.0549  45.9573 0000521 131.3520 228.7514 15.06385735122043,15.06385735,5.21e-05,LEO
48656,STARLINK-2701,2021,95.59,260.0,+,53.06,Active,1,LEO,USA,USA,Commercial,Communications,Falcon,1 48656U 21044U   23219.22515300  .00017697  00000+0  12052-2 0  9996,2 48656  53.0556  45.9758 0001092 112.2529 247.8576 15.06362361122048,15.06362361,0.0001092,LEO
48657,STARLINK-2734,2021,95.59,260.0,+,53.06,Active,1,LEO,USA,USA,Commercial,Communications,Falcon,1 48657U 21044V   23218.22624385 -.00010932  00000+0 -71640-3 0  9996,2 48657  53.0558  50.4569 0001468 123.7218 236.3911 15.06384545121954,15.06384545,0.0001468,LEO
48658,STARLINK-2647,2021,95.59,260.0,+,53.05,Active,1,LEO,USA,USA,Commercial,Communications,Falcon,1 48658U 21044W   23218.81968936  .00016472  00000+0  11233-2 0  9999,2 48658  53.0543  47.7927 0001025 112.3553 247.7544 15.06361687122042,15.06361687,0.0001025,LEO
48659,STARLINK-2717,2021,95.59,260.0,+,53.05,Active,1,LEO,USA,USA,Commercial,Communications,Falcon,1 48659U 21044X   23218.81600233  .00018473  00000+0  12575-2 0  9996,2 48659  53.0554  47.8124 0001104 110.3421 249.7687 15.06349223121989,15.06349223,0.0001104,LEO
48660,STARLINK-2688,2021,95.59,260.0,+,53.05,Active,1,LEO,USA,USA,Commercial,Communications,Falcon,1 48660U 21044Y   23218.81231225 -.00003682  00000+0 -22854-3 0  9999,2 48660  53.0547  47.8296 0001170  74.1182 285.9936 15.06379549121980,15.06379549,0.000117,LEO
48661,STARLINK-2708,2021,95.59,260.0,+,53.05,Active,1,LEO,USA,USA,Commercial,Communications,Falcon,1 48661U 21044Z   23219.47671567  .00019835  00000+0  13470-2 0  9998,2 48661  53.0550  34.8402 0001493 246.3042 113.7790 15.06392713122284,15.06392713,0.0001493,LEO
48662,STARLINK-2726,2021,95.59,260.0,+,53.05,Active,1,LEO,USA,USA,Commercial,Communications,Falcon,1 48662U 21044AA  23219.20764209  .00022308  00000+0  15126-2 0  9995,2 48662  53.0546  36.0510 0000934 118.2648 241.8435 15.06379782122181,15.06379782,9.34e-05,LEO
48663,STARLINK-2667,2021,95.59,260.0,+,53.06,Active,1,LEO,USA,USA,Commercial,Communications,Falcon,1 48663U 21044AB  23218.80586831 -.00002269  00000+0 -13360-3 0  9999,2 48663  53.0552  37.8519 0001129 111.5201 248.5909 15.06367457122125,15.06367457,0.0001129,LEO
48664,STARLINK-2709,2021,95.59,260.0,+,53.06,Active,1,LEO,USA,USA,Commercial,Communications,Falcon,1 48664U 21044AC  23219.26661674  .00030291  00000+0  20446-2 0  9996,2 48664  53.0550  35.7832 0000402 109.0907 251.0126 15.06384058122257,15.06384058,4.02e-05,LEO
48665,STARLINK-2653,2021,95.59,260.0,+,53.05,Active,1,LEO,USA,USA,Commercial,Communications,Falcon,1 48665U 21044AD  23218.88233403  .00054012  00000+0  36187-2 0  9995,2 48665  53.0537  37.5111 0001237 105.0882 255.0244 15.06385452122195,15.06385452,0.0001237,LEO
48666,STARLINK-2666,2021,95.59,260.0,+,53.05,Active,1,LEO,USA,USA,Commercial,Communications,Falcon,1 48666U 21044AE  23219.22613347  .00027066  00000+0  18302-2 0  9992,2 48666  53.0542  36.4393 0001103 107.2328 252.8782 15.06375285122233,15.06375285,0.0001103,LEO
48667,STARLINK-2735,2021,95.59,260.0,+,53.06,Active,1,LEO,USA,USA,Commercial,Communications,Falcon,1 48667U 21044AF  23218.93119602  .00038643  00000+0  26007-2 0  9999,2 48667  53.0553  37.2900 0000881 105.4588 254.6498 15.06375652122141,15.06375652,8.81e-05,LEO
48668,STARLINK-2738,2021,95.59,260.0,+,53.05,Active,1,LEO,USA,USA,Commercial,Communications,Falcon,1 48668U 21044AG  23219.45828326  .00007561  00000+0  52618-3 0  9991,2 48668  53.0548  34.9259 0001102 113.1457 246.9648 15.06381471122287,15.06381471,0.0001102,LEO
48669,STARLINK-2707,2021,95.59,260.0,+,53.05,Active,1,LEO,USA,USA,Commercial,Communications,Falcon,1 48669U 21044AH  23219.18920950  .00021249  00000+0  14421-2 0  9996,2 48669  53.0552  36.1338 0001039  84.9300 275.1807 15.06374026122173,15.06374026,0.0001039,LEO
48670,STARLINK-2763,2021,95.59,260.0,+,53.05,Active,1,LEO,USA,USA,Commercial,Communications,Falcon,1 48670U 21044AJ  23218.78743900  .00020023  00000+0  13613-2 0  9992,2 48670  53.0547  37.9378 0000957 112.3016 247.8075 15.06344206122114,15.06344206,9.57e-05,LEO
48671,STARLINK-2745,2021,95.59,260.0,+,53.06,Active,1,LEO,USA,USA,Commercial,Communications,Falcon,1 48671U 21044AK  23218.78375286  .00019336  00000+0  13152-2 0  9994,2 48671  53.0553  37.9540 0000852 102.3999 257.7086 15.06350727122113,15.06350727,8.52e-05,LEO
48672,STARLINK-2705,2021,95.59,260.0,+,53.06,Active,1,LEO,USA,USA,Commercial,Communications,Falcon,1 48672U 21044AL  23218.78005902 -.00007767  00000+0 -50362-3 0  9992,2 48672  53.0558  37.9737 0001091 100.0836 260.0276 15.06364460122171,15.0636446,0.0001091,LEO
48673,STARLINK-2711,2021,95.59,260.0,+,53.05,Active,1,LEO,USA,USA,Commercial,Communications,Falcon,1 48673U 21044AM  23218.77637758  .00017148  00000+0  11688-2 0  9991,2 48673  53.0542  37.9873 0001250 106.8328 253.2798 15.06352709122179,15.06352709,0.000125,LEO
48674,STARLINK-2712,2021,95.59,260.0,+,53.05,Active,1,LEO,USA,USA,Commercial,Communications,Falcon,1 48674U 21044AN  23218.77174785  .00018844  00000+0  12824-2 0  9995,2 48674  53.0548  37.9982 0001162 110.5166 249.5947 15.06347032122178,15.06347032,0.0001162,LEO
48675,STARLINK-2737,2021,95.59,260.0,+,53.05,Active,1,LEO,USA,USA,Commercial,Communications,Falcon,1 48675U 21044AP  23218.76900543  .00000425  00000+0  47460-4 0  9996,2 48675  53.0549  38.0194 0001079  94.8607 265.2505 15.06383894122113,15.06383894,0.0001079,LEO
48676,STARLINK-2746,2021,95.59,260.0,+,53.06,Active,1,LEO,USA,USA,Commercial,Communications,Falcon,1 48676U 21044AQ  23218.89801799  .00035867  00000+0  24160-2 0  9992,2 48676  53.0549  37.4452 0000998 114.4467 245.6626 15.06378498122194,15.06378498,9.98e-05,LEO
48677,STARLINK-2719,2021,95.59,260.0,+,53.05,Active,1,LEO,USA,USA,Commercial,Communications,Falcon,1 48677U 21044AR  23218.76069325  .00017537  00000+0  11948-2 0  9994,2 48677  53.0545  38.0453 0000891 117.3752 242.7328 15.06352033122116,15.06352033,8.91e-05,LEO
48678,STARLINK-2615,2021,95.59,260.0,+,53.05,Active,1,LEO,USA,USA,Commercial,Communications,Falcon,1 48678U 21044AS  23218.75795224 -.00003616  00000+0 -22423-3 0  9994,2 48678  53.0544  38.0714 0001153 104.4344 255.6773 15.06366032122113,15.06366032,0.0001153,LEO
48679,STARLINK-2648,2021,95.59,260.0,+,53.05,Active,1,LEO,USA,USA,Commercial,Communications,Falcon,1 48679U 21044AT  23218.75426913  .00016503  00000+0  11257-2 0  9990,2 48679  53.0545  38.0843 0000856 108.0062 252.1020 15.06350710122117,15.0635071,8.56e-05,LEO
48680,STARLINK-2649,2021,95.59,260.0,+,53.06,Active,1,LEO,USA,USA,Commercial,Communications,Falcon,1 48680U 21044AU  23218.88327598  .00029944  00000+0  20220-2 0  9998,2 48680  53.0547  37.5111 0001021 108.4093 251.7007 15.06375037122193,15.06375037,0.0001021,LEO
48681,STARLINK-2725,2021,95.59,260.0,+,53.06,Active,1,LEO,USA,USA,Commercial,Communications,Falcon,1 48681U 21044AV  23219.14777260  .00046130  00000+0  30967-2 0  9999,2 48681  53.0558   6.5654 0001284  90.9635 269.1501 15.06386841122649,15.06386841,0.0001284,LEO
48682,STARLINK-2743,2021,95.6,260.0,+,53.06,Active,1,LEO,USA,USA,Commercial,Communications,Falcon,1 48682U 21044AW  23219.34403729  .00020207  00000+0  13712-2 0  9994,2 48682  53.0557 355.6012 0001129  94.2390 265.8728 15.06410118122759,15.06410118,0.0001129,LEO
48683,STARLINK-2756,2021,95.59,260.0,+,53.06,Active,1,LEO,USA,USA,Commercial,Communications,Falcon,1 48683U 21044AX  23218.76900670  .00045570  00000+0  30622-2 0  9996,2 48683  53.0557 358.0317 0001192  76.3977 283.7144 15.06354831122678,15.06354831,0.0001192,LEO
48684,STARLINK-2741,2021,95.6,260.0,+,53.06,Active,1,LEO,USA,USA,Commercial,Communications,Falcon,1 48684U 21044AY  23218.72527825  .00031374  00000+0  21179-2 0  9994,2 48684  53.0559  13.5712 0001397 109.3870 250.7270 15.06363483122519,15.06363483,0.0001397,LEO
48685,STARLINK-2751,2021,95.59,260.0,+,53.06,Active,1,LEO,USA,USA,Commercial,Communications,Falcon,1 48685U 21044AZ  23219.40299454  .00026434  00000+0  17854-2 0  9991,2 48685  53.0549 355.2275 0001027  88.0972 272.0134 15.06431018122779,15.06431018,0.0001027,LEO
